IRIDIUM 166             
1 43570U 18061B   25019.58942627  .00000294  00000+0  97871-4 0  9995
2 43570  86.3952 271.3439 0002274  93.5165 266.6290 14.34217933339785
IRIDIUM 158             
1 43571U 18061C   25019.62747919  .00000162  00000+0  50931-4 0  9998
2 43571  86.3951 271.3375 0001814  91.4389 268.7015 14.34219212339755
IRIDIUM 165             
1 43572U 18061D   25019.23424128 -.00000022  00000+0 -14908-4 0  9991
2 43572  86.3955 271.5384 0002051  81.6367 278.5061 14.34218723339726
IRIDIUM 155             
1 43573U 18061E   25019.61478957  .00000578  00000+0  19913-3 0  9997
2 43573  86.3949 271.2741 0001969  94.7005 265.4416 14.34225092339743
IRIDIUM 154             
1 43574U 18061F   25019.24692616 -.00000015  00000+0 -12244-4 0  9996
2 43574  86.3953 271.5358 0001990  83.8596 276.2826 14.34217601339746
IRIDIUM 163             
1 43575U 18061G   25019.22789842  .00000014  00000+0 -21880-5 0  9998
2 43575  86.3953 271.4753 0001835  84.7890 275.3515 14.34217470339716
IRIDIUM 156             
1 43576U 18061H   25019.62113435  .00000327  00000+0  10959-3 0  9991
2 43576  86.3950 271.3178 0002110  96.0004 264.1432 14.34220916339762
IRIDIUM 164             
1 43577U 18061J   25019.18349548  .00000524  00000+0  17987-3 0  9996
2 43577  86.3953 271.5330 0002273  81.1067 279.0386 14.34222704339740
